*******************************************************************************
JPL/HORIZONS               1285 Julietta (1933 QF)         2023-Sep-04 11:11:16
Rec #:    1285 (+COV) Soln.date: 2023-Aug-21_21:01:01   # obs: 6113 (1933-2023)
 
IAU76/J2000 helio. ecliptic osc. elements (au, days, deg., period=Julian yrs):
 
  EPOCH=  2457327.5 ! 2015-Nov-01.00 (TDB)         Residual RMS= .25236
   EC= .05349167542914472  QR= 2.832191361388888   TP= 2457794.9382675034
   OM= 317.9105215394691   W=  71.46626028521362   IN= 5.693574299345041
   A= 2.99225193045502     MA= 270.9915775598229   ADIST= 3.152312499521151
   PER= 5.17613            N= .190417492           ANGMOM= .029713807
   DAN= 2.93381            DDN= 3.0353             L= 29.2912159
   B= 5.3973856            MOID= 1.84237003        TP= 2017-Feb-10.4382675034
 
Asteroid physical parameters (km, seconds, rotational period in hours):
   GM= n.a.                RAD= 21.215             ROTPER= 20.3
   H= 10.93                G= .150                 B-V= n.a.
                           ALBEDO= .058            STYP= n.a.

ASTEROID comments: 
1: soln ref.= JPL#55, OCC=0
2: source=ORB
*******************************************************************************


*******************************************************************************
Ephemeris / API_USER Mon Sep  4 11:11:16 2023 Pasadena, USA      / Horizons
*******************************************************************************
Target body name: 1285 Julietta (1933 QF)         {source: JPL#55}
Center body name: Solar System Barycenter (0)     {source: DE441}
Center-site name: BODY CENTER
*******************************************************************************
Start time      : A.D. 2023-Aug-12 00:00:00.0000 TDB
Stop  time      : A.D. 2023-Aug-13 00:00:00.0000 TDB
Step-size       : 2880 minutes
*******************************************************************************
Center geodetic : 0.0, 0.0, 0.0                   {E-lon(deg),Lat(deg),Alt(km)}
Center cylindric: 0.0, 0.0, 0.0                   {E-lon(deg),Dxy(km),Dz(km)}
Center radii    : (undefined)
Small perturbers: Yes                             {source: SB441-N16}
Output units    : KM-S
Calendar mode   : Mixed Julian/Gregorian
Output type     : GEOMETRIC cartesian states
Output format   : 2 (position and velocity)
Reference frame : Ecliptic of J2000.0
*******************************************************************************
Initial IAU76/J2000 heliocentric ecliptic osculating elements (au, days, deg.):
  EPOCH=  2457327.5 ! 2015-Nov-01.00 (TDB)         Residual RMS= .25236        
   EC= .05349167542914472  QR= 2.832191361388888   TP= 2457794.9382675034      
   OM= 317.9105215394691   W=  71.46626028521362   IN= 5.693574299345041       
  Equivalent ICRF heliocentric cartesian coordinates (au, au/d):
   X= 1.235051435617278E+00  Y=-2.456515459399049E+00  Z=-1.195159059529530E+00
  VX= 8.788379064169146E-03 VY= 3.779946308372844E-03 VZ= 2.643400328266465E-03
Asteroid physical parameters (km, seconds, rotational period in hours):        
   GM= n.a.                RAD= 21.215             ROTPER= 20.3                
   H= 10.93                G= .150                 B-V= n.a.                   
                           ALBEDO= .058            STYP= n.a.                  
*******************************************************************************
JDTDB
   X     Y     Z
   VX    VY    VZ
*******************************************************************************
$$SOE
2460168.500000000 = A.D. 2023-Aug-12 00:00:00.0000 TDB 
 X =-2.701762693684012E+08 Y = 3.607760821692930E+08 Z = 8.699060781418636E+06
 VX=-1.415603053872763E+01 VY=-9.483999176855432E+00 VZ=-1.646948750613097E+00
$$EOE
*******************************************************************************
 
TIME

  Barycentric Dynamical Time ("TDB" or T_eph) output was requested. This
continuous coordinate time is equivalent to the relativistic proper time
of a clock at rest in a reference frame co-moving with the solar system
barycenter but outside the system's gravity well. It is the independent
variable in the solar system relativistic equations of motion.

  TDB runs at a uniform rate of one SI second per second and is independent
of irregularities in Earth's rotation.
 
CALENDAR SYSTEM

  Mixed calendar mode was active such that calendar dates after AD 1582-Oct-15
(if any) are in the modern Gregorian system. Dates prior to 1582-Oct-5 (if any)
are in the Julian calendar system, which is automatically extended for dates
prior to its adoption on 45-Jan-1 BC.  The Julian calendar is useful for
matching historical dates. The Gregorian calendar more accurately corresponds
to the Earth's orbital motion and seasons. A "Gregorian-only" calendar mode is
available if such physical events are the primary interest.

REFERENCE FRAME AND COORDINATES

  Ecliptic at the standard reference epoch

    Reference epoch: J2000.0
    X-Y plane: adopted Earth orbital plane at the reference epoch
               Note: IAU76 obliquity of 84381.448 arcseconds wrt ICRF X-Y plane
    X-axis   : ICRF
    Z-axis   : perpendicular to the X-Y plane in the directional (+ or -) sense
               of Earth's north pole at the reference epoch.

  Symbol meaning:

    JDTDB    Julian Day Number, Barycentric Dynamical Time
      X      X-component of position vector (km)
      Y      Y-component of position vector (km)
      Z      Z-component of position vector (km)
      VX     X-component of velocity vector (km/sec)                           
      VY     Y-component of velocity vector (km/sec)                           
      VZ     Z-component of velocity vector (km/sec)                           

ABERRATIONS AND CORRECTIONS

 Geometric state vectors have NO corrections or aberrations applied.

Computations by ...

    Solar System Dynamics Group, Horizons On-Line Ephemeris System
    4800 Oak Grove Drive, Jet Propulsion Laboratory
    Pasadena, CA  91109   USA

    General site: https://ssd.jpl.nasa.gov/
    Mailing list: https://ssd.jpl.nasa.gov/email_list.html
    System news : https://ssd.jpl.nasa.gov/horizons/news.html
    User Guide  : https://ssd.jpl.nasa.gov/horizons/manual.html
    Connect     : browser        https://ssd.jpl.nasa.gov/horizons/app.html#/x
                  API            https://ssd-api.jpl.nasa.gov/doc/horizons.html
                  command-line   telnet ssd.jpl.nasa.gov 6775
                  e-mail/batch   https://ssd.jpl.nasa.gov/ftp/ssd/hrzn_batch.txt
                  scripts        https://ssd.jpl.nasa.gov/ftp/ssd/SCRIPTS
    Author      : Jon.D.Giorgini@jpl.nasa.gov
*******************************************************************************
